OBJECT_NAME,OBJECT_ID,EPOCH,MEAN_MOTION,ECCENTRICITY,INCLINATION,RA_OF_ASC_NODE,ARG_OF_PERICENTER,MEAN_ANOMALY,EPHEMERIS_TYPE,CLASSIFICATION_TYPE,NORAD_CAT_ID,ELEMENT_SET_NO,REV_AT_EPOCH,BSTAR,MEAN_MOTION_DOT,MEAN_MOTION_DDOT
STARLINK-11667 [DTC],2025-075C,2025-07-21T02:31:29.299008,15.70876631,0.0002382,43.003,109.9654,274.825,85.2345,0,U,63550,999,1682,1.21E-03,1.58E-03,0
STARLINK-11695 [DTC],2025-075D,2025-07-21T10:33:21.416544,15.70893837,0.0000826,42.9997,107.2892,282.33,77.7476,0,U,63551,999,1688,1.69E-03,2.23E-03,0
STARLINK-11685 [DTC],2025-075E,2025-07-21T10:47:20.347584,15.7091838,0.0000893,42.9991,107.3664,314.5774,45.5021,0,U,63552,999,1688,2.13E-03,2.83E-03,0
STARLINK-11697 [DTC],2025-075F,2025-07-21T03:17:11.176224,15.70872179,0.0002087,43.0003,109.3247,265.2067,94.8562,0,U,63553,999,1683,4.05E-04,5.19E-04,0
STARLINK-11680 [DTC],2025-075G,2025-07-21T02:23:50.661024,15.70841552,0.000181,43.0002,109.9217,275.7086,84.3575,0,U,63554,999,1682,2.78E-04,3.54E-04,0
STARLINK-11687 [DTC],2025-075H,2025-07-21T03:40:06.799008,15.70842639,0.0001688,43.0002,109.4529,273.928,86.1394,0,U,63555,999,1683,1.45E-03,1.91E-03,0
STARLINK-11626 [DTC],2025-075J,2025-07-21T10:24:34.978752,15.70889176,0.0000935,42.9998,108.1325,272.3243,87.7518,0,U,63556,999,1686,1.38E-03,1.81E-03,0
STARLINK-11668 [DTC],2025-075K,2025-07-21T02:39:07.947360,15.70877852,0.0002322,43.0012,110.0063,274.009,86.0512,0,U,63557,999,1681,1.19E-03,1.55E-03,0
STARLINK-11657 [DTC],2025-075L,2025-07-21T02:16:11.762976,15.70869337,0.0002238,43.002,109.8767,269.5551,90.506,0,U,63558,999,1681,1.69E-03,2.22E-03,0
STARLINK-11606 [DTC],2025-075M,2025-07-21T03:01:53.587488,15.70868058,0.0000737,42.9983,109.2375,308.424,51.6561,0,U,63559,999,1682,1.32E-03,1.73E-03,0
STARLINK-11592 [DTC],2025-075N,2025-07-21T01:53:15.417888,15.70912616,0.0002264,42.9994,109.747,260.6325,99.4286,0,U,63560,999,1681,1.60E-03,2.11E-03,0
STARLINK-32953,2025-075P,2025-07-21T05:03:00.747648,15.27585244,0.0001332,43,138.0783,257.5994,102.4709,0,U,63561,999,1651,4.57E-04,1.23E-04,0
STARLINK-32951,2025-075Q,2025-07-20T19:32:30.786144,15.27585568,0.0001052,43.0002,140.2371,283.7297,76.3437,0,U,63562,999,1647,4.76E-04,1.28E-04,0
STARLINK-32958,2025-075R,2025-07-21T04:42:39.011040,15.27601213,0.0001266,42.9989,137.9773,268.5376,91.5331,0,U,63563,999,1652,4.29E-04,1.16E-04,0
STARLINK-32928,2025-075S,2025-07-21T04:18:36.101664,15.27589992,0.0001275,42.9993,137.8444,264.0278,96.0429,0,U,63564,999,1652,3.98E-04,1.07E-04,0
STARLINK-32687,2025-075T,2025-07-20T13:14:03.167520,15.27574414,0.0000715,42.9973,141.7021,36.9605,323.1296,0,U,63565,999,1642,5.65E-04,1.53E-04,0
STARLINK-32950,2025-075U,2025-07-21T04:11:11.148576,15.27587452,0.0001246,42.9995,137.7397,262.7241,97.3469,0,U,63566,999,1652,3.48E-04,9.33E-05,0
STARLINK-32954,2025-075V,2025-07-21T04:29:40.941888,15.276262,0.0000899,43.0012,137.8727,260.5303,99.5447,0,U,63567,999,1652,1.07E-03,2.93E-04,0
STARLINK-32940,2025-075W,2025-07-21T04:37:06.159360,15.27591397,0.0001236,43.0023,137.9096,278.3376,81.7335,0,U,63568,999,1652,5.38E-04,1.46E-04,0
STARLINK-32959,2025-076A,2025-07-21T06:38:31.985376,15.27589388,0.0000361,42.9942,192.5671,224.6215,135.4607,0,U,63569,999,1616,4.60E-04,1.24E-04,0
STARLINK-33723,2025-076AA,2025-07-21T05:32:36.062880,15.2758805,0.000149,43.0005,188.6801,272.308,87.7601,0,U,63593,999,1619,4.90E-04,1.32E-04,0
STARLINK-33791,2025-076AB,2025-07-21T07:45:35.144352,15.27625837,0.0001313,42.9983,188.5155,265.1555,94.9147,0,U,63594,999,1621,7.00E-04,1.91E-04,0
STARLINK-33831,2025-076AC,2025-07-20T09:14:06.218016,15.27588646,0.0001658,42.9988,193.451,279.031,81.0354,0,U,63595,999,1630,4.73E-04,1.28E-04,0
STARLINK-32956,2025-076B,2025-07-21T08:23:34.770336,15.27585437,0.0001293,42.9995,191.3923,273.8373,86.2331,0,U,63570,999,1634,5.32E-04,1.44E-04,0
STARLINK-33722,2025-076C,2025-07-20T09:12:18.520416,15.27574092,0.0000296,42.9967,193.5124,254.0444,106.0375,0,U,63571,999,1629,1.05E-03,2.88E-04,0
STARLINK-33739,2025-076D,2025-07-20T16:18:51.512832,15.27565665,0.0001429,42.9996,192.3012,265.8366,94.2322,0,U,63572,999,1634,4.84E-04,1.31E-04,0
STARLINK-33683,2025-076E,2025-07-21T06:24:24.932736,15.27588616,0.0001165,42.9989,188.9645,259.3419,100.7302,0,U,63573,999,1629,4.90E-04,1.32E-04,0
STARLINK-33732,2025-076G,2025-07-20T15:58:31.893888,15.27587143,0.000139,42.9994,192.1879,258.5919,101.4777,0,U,63575,999,1634,4.93E-04,1.33E-04,0
STARLINK-33800,2025-076H,2025-07-21T05:28:54.265440,15.27589837,0.0001466,43.0002,188.6709,274.5324,85.536,0,U,63576,999,1640,6.44E-04,1.75E-04,0
STARLINK-33632,2025-076J,2025-07-20T16:13:18.496128,15.27581994,0.0001218,42.9975,192.2661,268.3717,91.6995,0,U,63577,999,1634,4.63E-04,1.25E-04,0
