STARLINK-11667 [DTC]    
1 63550U 25075C   25202.10520022  .00157660  00000+0  12071-2 0  9998
2 63550  43.0030 109.9654 0002382 274.8250  85.2345 15.70876631 16826
STARLINK-11695 [DTC]    
1 63551U 25075D   25202.43983121  .00223145  00000+0  16924-2 0  9991
2 63551  42.9997 107.2892 0000826 282.3300  77.7476 15.70893837 16887
STARLINK-11685 [DTC]    
1 63552U 25075E   25202.44954106  .00282891  00000+0  21269-2 0  9995
2 63552  42.9991 107.3664 0000893 314.5774  45.5021 15.70918380 16887
STARLINK-11697 [DTC]    
1 63553U 25075F   25202.13693491  .00051942  00000+0  40520-3 0  9992
2 63553  43.0003 109.3247 0002087 265.2067  94.8562 15.70872179 16834
STARLINK-11680 [DTC]    
1 63554U 25075G   25202.09989191  .00035377  00000+0  27800-3 0  9993
2 63554  43.0002 109.9217 0001810 275.7086  84.3575 15.70841552 16825
STARLINK-11687 [DTC]    
1 63555U 25075H   25202.15285647  .00190572  00000+0  14547-2 0  9998
2 63555  43.0002 109.4529 0001688 273.9280  86.1394 15.70842639 16833
STARLINK-11626 [DTC]    
1 63556U 25075J   25202.43373818  .00180581  00000+0  13776-2 0  9990
2 63556  42.9998 108.1325 0000935 272.3243  87.7518 15.70889176 16867
STARLINK-11668 [DTC]    
1 63557U 25075K   25202.11050865  .00155118  00000+0  11880-2 0  9992
2 63557  43.0012 110.0063 0002322 274.0090  86.0512 15.70877852 16818
STARLINK-11657 [DTC]    
1 63558U 25075L   25202.09458059  .00222383  00000+0  16885-2 0  9996
2 63558  43.0020 109.8767 0002238 269.5551  90.5060 15.70869337 16819
STARLINK-11606 [DTC]    
1 63559U 25075M   25202.12631467  .00172746  00000+0  13204-2 0  9996
2 63559  42.9983 109.2375 0000737 308.4240  51.6561 15.70868058 16829
STARLINK-11592 [DTC]    
1 63560U 25075N   25202.07865067  .00210602  00000+0  15986-2 0  9990
2 63560  42.9994 109.7470 0002264 260.6325  99.4286 15.70912616 16817
STARLINK-32953          
1 63561U 25075P   25202.21042532  .00012347  00000+0  45738-3 0  9996
2 63561  43.0000 138.0783 0001332 257.5994 102.4709 15.27585244 16519
STARLINK-32951          
1 63562U 25075Q   25201.81424521  .00012848  00000+0  47553-3 0  9997
2 63562  43.0002 140.2371 0001052 283.7297  76.3437 15.27585568 16477
STARLINK-32958          
1 63563U 25075R   25202.19628485  .00011567  00000+0  42891-3 0  9992
2 63563  42.9989 137.9773 0001266 268.5376  91.5331 15.27601213 16529
STARLINK-32928          
1 63564U 25075S   25202.17958451  .00010710  00000+0  39803-3 0  9998
2 63564  42.9993 137.8444 0001275 264.0278  96.0429 15.27589992 16528
STARLINK-32687          
1 63565U 25075T   25201.55142555  .00015322  00000+0  56526-3 0  9995
2 63565  42.9973 141.7021 0000715  36.9605 323.1296 15.27574414 16428
STARLINK-32950          
1 63566U 25075U   25202.17443459  .00009328  00000+0  34799-3 0  9999
2 63566  42.9995 137.7397 0001246 262.7241  97.3469 15.27587452 16528
STARLINK-32954          
1 63567U 25075V   25202.18727942  .00029266  00000+0  10673-2 0  9990
2 63567  43.0012 137.8727 0000899 260.5303  99.5447 15.27626200 16522
STARLINK-32940          
1 63568U 25075W   25202.19243240  .00014568  00000+0  53769-3 0  9999
2 63568  43.0023 137.9096 0001236 278.3376  81.7335 15.27591397 16525
STARLINK-32959          
1 63569U 25076A   25202.27675909  .00012416  00000+0  45980-3 0  9997
2 63569  42.9942 192.5671 0000361 224.6215 135.4607 15.27589388 16160
STARLINK-32956          
1 63570U 25076B   25202.34970799  .00014404  00000+0  53183-3 0  9995
2 63570  42.9995 191.3923 0001293 273.8373  86.2331 15.27585437 16341
STARLINK-33722          
1 63571U 25076C   25201.38354769  .00028772  00000+0  10512-2 0  9993
2 63571  42.9967 193.5124 0000296 254.0444 106.0375 15.27574092 16298
STARLINK-33739          
1 63572U 25076D   25201.67976288  .00013074  00000+0  48397-3 0  9994
2 63572  42.9996 192.3012 0001429 265.8366  94.2322 15.27565665 16348
STARLINK-33683          
1 63573U 25076E   25202.26695524  .00013236  00000+0  48953-3 0  9990
2 63573  42.9989 188.9645 0001165 259.3419 100.7302 15.27588616 16294
STARLINK-33732          
1 63575U 25076G   25201.66564692  .00013334  00000+0  49310-3 0  9993
2 63575  42.9994 192.1879 0001390 258.5919 101.4777 15.27587143 16348
STARLINK-33800          
1 63576U 25076H   25202.22840585  .00017511  00000+0  64416-3 0  9990
2 63576  43.0002 188.6709 0001466 274.5324  85.5360 15.27589837 16404
STARLINK-33632          
1 63577U 25076J   25201.67590852  .00012512  00000+0  46341-3 0  9991
2 63577  42.9975 192.2661 0001218 268.3717  91.6995 15.27581994 16343
STARLINK-33723          
1 63593U 25076AA  25202.23097295  .00013248  00000+0  48995-3 0  9999
2 63593  43.0005 188.6801 0001490 272.3080  87.7601 15.27588050 16195
STARLINK-33791          
1 63594U 25076AB  25202.32332343  .00019080  00000+0  70011-3 0  9990
2 63594  42.9983 188.5155 0001313 265.1555  94.9147 15.27625837 16214
STARLINK-33831          
1 63595U 25076AC  25201.38479419  .00012786  00000+0  47321-3 0  9996
2 63595  42.9988 193.4510 0001658 279.0310  81.0354 15.27588646 16308
